SPACEMOBILE-004         
1 61049U 24163E   26199.31610674  .00010492  00000+0  48447-3 0  9996
2 61049  52.9719 165.7693 0005789 237.6341 122.4093 15.20746753102506
CZ-8A R/B               
1 66004U 25231K   26199.91488572 -.00000073  00000+0  32642-4 0  9991
2 66004  50.0035 264.3335 0116549 335.7191  23.8260 14.30162784 39483
SZ-21 MODULE            
1 66515U 25246C   26199.92739433  .00033789  00000+0  18475-3 0  9996
2 66515  41.4721 109.2360 0008998 244.5727 115.4187 15.79071275 38754
SPACEMOBILE-006         
1 67232U 25309A   26199.36977421  .00001388  00000+0  81418-4 0  9990
2 67232  52.9937 188.7910 0009785 226.0321 133.9866 15.18663329 31336
SPACEMOBILE-008         
1 69589U 26139A   26199.91856603  .00000372  00000+0  37934-4 0  9994
2 69589  52.9950 118.5029 0005195  65.3049 294.8482 15.12805365  4784
SPACEMOBILE-009         
1 69590U 26139B   26199.92079068  .00000347  00000+0  36602-4 0  9992
2 69590  52.9941 118.5109 0005448  61.6062 298.5477 15.12698741  4783
SPACEMOBILE-010         
1 69591U 26139C   26199.79215350  .00001057  00000+0  76987-4 0  9993
2 69591  52.9947 119.1356 0005439  53.7113 306.4380 15.12537049  4774
